{"type": "FeatureCollection", "features": [ {"type": "Feature", "properties": {"norad_id": 41836, "name": "HIMAWARI-9", "group": "weather", "lat": -0.03931186711397104, "lon": -89.08277802178823, "alt_km": 35777.94101839887, "timestamp": "2025-12-04T03:47:54.197435+00:00", "meta": {"OBJECT_NAME": "HIMAWARI-9", "OBJECT_ID": "2016-064A", "EPOCH": "2025-12-03T18:51:33.971040", "MEAN_MOTION": 1.00270864, "ECCENTRICITY": 0.0002331, "INCLINATION": 0.0194, "RA_OF_ASC_NODE": 347.0429, "ARG_OF_PERICENTER": 314.766, "MEAN_ANOMALY": 194.6947, "EPHEMERIS_TYPE": 0, "CLASSIFICATION_TYPE": "U", "NORAD_CAT_ID": 41836, "ELEMENT_SET_NO": 999, "REV_AT_EPOCH": 3325, "BSTAR": 0, "MEAN_MOTION_DOT": 0, "MEAN_MOTION_DDOT": 0}, "tle": {"line1": "1 41836U 16064A   25337.78580985  .00000000  00000+0  00000+0 0  9997", "line2": "2 41836   0.0194 347.0429 0002331 314.7660 194.6947  1.00270864 33254"}}, "geometry": {"type": "Point", "coordinates": [-89.08277802178823, -0.03931186711397104]}}, {"type": "Feature", "properties": {"norad_id": 41866, "name": "GOES 16", "group": "weather", "lat": -0.024788239161675236, "lon": 25.54750385232368, "alt_km": 35795.469780896594, "timestamp": "2025-12-04T03:47:54.197461+00:00", "meta": {"OBJECT_NAME": "GOES 16", "OBJECT_ID": "2016-071A", "EPOCH": "2025-12-03T16:40:44.443776", "MEAN_MOTION": 1.00270587, "ECCENTRICITY": 0.0003425, "INCLINATION": 0.06, "RA_OF_ASC_NODE": 106.1722, "ARG_OF_PERICENTER": 150.8808, "MEAN_ANOMALY": 321.241, "EPHEMERIS_TYPE": 0, "CLASSIFICATION_TYPE": "U", "NORAD_CAT_ID": 41866, "ELEMENT_SET_NO": 999, "REV_AT_EPOCH": 3314, "BSTAR": 0, "MEAN_MOTION_DOT": -7.3e-07, "MEAN_MOTION_DDOT": 0}, "tle": {"line1": "1 41866U 16071A   25337.69495884 -.00000073  00000+0  00000+0 0  9992", "line2": "2 41866   0.0600 106.1722 0003425 150.8808 321.2410  1.00270587 33140"}}, "geometry": {"type": "Point", "coordinates": [25.54750385232368, -0.024788239161675236]}}, {"type": "Feature", "properties": {"norad_id": 41882, "name": "FENGYUN 4A", "group": "weather", "lat": 0.24450487068202167, "lon": -106.03010239946568, "alt_km": 35765.73433594677, "timestamp": "2025-12-04T03:47:54.197475+00:00", "meta": {"OBJECT_NAME": "FENGYUN 4A", "OBJECT_ID": "2016-077A", "EPOCH": "2025-12-03T17:33:02.668032", "MEAN_MOTION": 1.00278005, "ECCENTRICITY": 0.0005046, "INCLINATION": 1.8246, "RA_OF_ASC_NODE": 82.4798, "ARG_OF_PERICENTER": 142.0307, "MEAN_ANOMALY": 235.3013, "EPHEMERIS_TYPE": 0, "CLASSIFICATION_TYPE": "U", "NORAD_CAT_ID": 41882, "ELEMENT_SET_NO": 999, "REV_AT_EPOCH": 3297, "BSTAR": 0, "MEAN_MOTION_DOT": -3.4e-06, "MEAN_MOTION_DDOT": 0}, "tle": {"line1": "1 41882U 16077A   25337.73128088 -.00000340  00000+0  00000+0 0  9997", "line2": "2 41882   1.8246  82.4798 0005046 142.0307 235.3013  1.00278005 32977"}}, "geometry": {"type": "Point", "coordinates": [-106.03010239946568, 0.24450487068202167]}}, {"type": "Feature", "properties": {"norad_id": 41884, "name": "CYGFM05", "group": "weather", "lat": -1.561268121501754, "lon": 100.92981208540012, "alt_km": 425.6495960982875, "timestamp": "2025-12-04T03:47:54.197487+00:00", "meta": {"OBJECT_NAME": "CYGFM05", "OBJECT_ID": "2016-078A", "EPOCH": "2025-12-03T18:31:05.693088", "MEAN_MOTION": 15.47122129, "ECCENTRICITY": 0.0009443, "INCLINATION": 34.9581, "RA_OF_ASC_NODE": 105.6896, "ARG_OF_PERICENTER": 97.015, "MEAN_ANOMALY": 263.1646, "EPHEMERIS_TYPE": 0, "CLASSIFICATION_TYPE": "U", "NORAD_CAT_ID": 41884, "ELEMENT_SET_NO": 999, "REV_AT_EPOCH": 49837, "BSTAR": 0.0005289, "MEAN_MOTION_DOT": 0.00027731, "MEAN_MOTION_DDOT": 0}, "tle": {"line1": "1 41884U 16078A   25337.77159367  .00027731  00000+0  52890-3 0  9998", "line2": "2 41884  34.9581 105.6896 0009443  97.0150 263.1646 15.47122129498377"}}, "geometry": {"type": "Point", "coordinates": [100.92981208540012, -1.561268121501754]}}, {"type": "Feature", "properties": {"norad_id": 41885, "name": "CYGFM04", "group": "weather", "lat": 14.868709937300753, "lon": -124.1696800005056, "alt_km": 408.6177260028071, "timestamp": "2025-12-04T03:47:54.197497+00:00", "meta": {"OBJECT_NAME": "CYGFM04", "OBJECT_ID": "2016-078B", "EPOCH": "2025-12-03T16:19:08.755680", "MEAN_MOTION": 15.4978051, "ECCENTRICITY": 0.0008498, "INCLINATION": 34.9344, "RA_OF_ASC_NODE": 81.322, "ARG_OF_PERICENTER": 126.9892, "MEAN_ANOMALY": 233.1609, "EPHEMERIS_TYPE": 0, "CLASSIFICATION_TYPE": "U", "NORAD_CAT_ID": 41885, "ELEMENT_SET_NO": 999, "REV_AT_EPOCH": 49853, "BSTAR": 0.00098169, "MEAN_MOTION_DOT": 0.00056749, "MEAN_MOTION_DDOT": 0}, "tle": {"line1": "1 41885U 16078B   25337.67996245  .00056749  00000+0  98169-3 0  9992", "line2": "2 41885  34.9344  81.3220 0008498 126.9892 233.1609 15.49780510498530"}}, "geometry": {"type": "Point", "coordinates": [-124.1696800005056, 14.868709937300753]}}, {"type": "Feature", "properties": {"norad_id": 41886, "name": "CYGFM02", "group": "weather", "lat": 28.29965365924921, "lon": -153.83322394490486, "alt_km": 401.099082947695, "timestamp": "2025-12-04T03:47:54.197509+00:00", "meta": {"OBJECT_NAME": "CYGFM02", "OBJECT_ID": "2016-078C", "EPOCH": "2025-12-03T16:27:15.357024", "MEAN_MOTION": 15.51117901, "ECCENTRICITY": 0.0010221, "INCLINATION": 34.9434, "RA_OF_ASC_NODE": 79.7274, "ARG_OF_PERICENTER": 125.8816, "MEAN_ANOMALY": 234.2856, "EPHEMERIS_TYPE": 0, "CLASSIFICATION_TYPE": "U", "NORAD_CAT_ID": 41886, "ELEMENT_SET_NO": 999, "REV_AT_EPOCH": 49866, "BSTAR": 0.00053655, "MEAN_MOTION_DOT": 0.0003243, "MEAN_MOTION_DDOT": 0}, "tle": {"line1": "1 41886U 16078C   25337.68559441  .00032430  00000+0  53655-3 0  9999", "line2": "2 41886  34.9434  79.7274 0010221 125.8816 234.2856 15.51117901498663"}}, "geometry": {"type": "Point", "coordinates": [-153.83322394490486, 28.29965365924921]}}, {"type": "Feature", "properties": {"norad_id": 41887, "name": "CYGFM01", "group": "weather", "lat": 13.310057765912395, "lon": 125.38168024531264, "alt_km": 418.1498044903283, "timestamp": "2025-12-04T03:47:54.197537+00:00", "meta": {"OBJECT_NAME": "CYGFM01", "OBJECT_ID": "2016-078D", "EPOCH": "2025-12-03T18:24:28.844064", "MEAN_MOTION": 15.4768667, "ECCENTRICITY": 0.0009033, "INCLINATION": 34.9412, "RA_OF_ASC_NODE": 108.1317, "ARG_OF_PERICENTER": 88.3823, "MEAN_ANOMALY": 271.7933, "EPHEMERIS_TYPE": 0, "CLASSIFICATION_TYPE": "U", "NORAD_CAT_ID": 41887, "ELEMENT_SET_NO": 999, "REV_AT_EPOCH": 49831, "BSTAR": 0.00054644, "MEAN_MOTION_DOT": 0.00029225, "MEAN_MOTION_DDOT": 0}, "tle": {"line1": "1 41887U 16078D   25337.76700051  .00029225  00000+0  54644-3 0  9991", "line2": "2 41887  34.9412 108.1317 0009033  88.3823 271.7933 15.47686670498318"}}, "geometry": {"type": "Point", "coordinates": [125.38168024531264, 13.310057765912395]}}, {"type": "Feature", "properties": {"norad_id": 41888, "name": "CYGFM08", "group": "weather", "lat": 19.228165077346148, "lon": 118.63230748294032, "alt_km": 415.20026380921354, "timestamp": "2025-12-04T03:47:54.197550+00:00", "meta": {"OBJECT_NAME": "CYGFM08", "OBJECT_ID": "2016-078E", "EPOCH": "2025-12-03T16:49:09.162336", "MEAN_MOTION": 15.48859683, "ECCENTRICITY": 0.0010714, "INCLINATION": 34.9451, "RA_OF_ASC_NODE": 91.66, "ARG_OF_PERICENTER": 114.1528, "MEAN_ANOMALY": 246.0315, "EPHEMERIS_TYPE": 0, "CLASSIFICATION_TYPE": "U", "NORAD_CAT_ID": 41888, "ELEMENT_SET_NO": 999, "REV_AT_EPOCH": 49853, "BSTAR": 0.00053575, "MEAN_MOTION_DOT": 0.00029879, "MEAN_MOTION_DDOT": 0}, "tle": {"line1": "1 41888U 16078E   25337.70080049  .00029879  00000+0  53575-3 0  9991", "line2": "2 41888  34.9451  91.6600 0010714 114.1528 246.0315 15.48859683498531"}}, "geometry": {"type": "Point", "coordinates": [118.63230748294032, 19.228165077346148]}}, {"type": "Feature", "properties": {"norad_id": 41890, "name": "CYGFM07", "group": "weather", "lat": 2.857483146812938, "lon": 81.79386411339607, "alt_km": 420.8589596043321, "timestamp": "2025-12-04T03:47:54.197561+00:00", "meta": {"OBJECT_NAME": "CYGFM07", "OBJECT_ID": "2016-078G", "EPOCH": "2025-12-03T16:57:09.459072", "MEAN_MOTION": 15.49431579, "ECCENTRICITY": 0.0008992, "INCLINATION": 34.9472, "RA_OF_ASC_NODE": 80.6555, "ARG_OF_PERICENTER": 132.3245, "MEAN_ANOMALY": 227.824, "EPHEMERIS_TYPE": 0, "CLASSIFICATION_TYPE": "U", "NORAD_CAT_ID": 41890, "ELEMENT_SET_NO": 999, "REV_AT_EPOCH": 49855, "BSTAR": 0.00053086, "MEAN_MOTION_DOT": 0.00030191, "MEAN_MOTION_DDOT": 0}, "tle": {"line1": "1 41890U 16078G   25337.70635948  .00030191  00000+0  53086-3 0  9994", "line2": "2 41890  34.9472  80.6555 0008992 132.3245 227.8240 15.49431579498554"}}, "geometry": {"type": "Point", "coordinates": [81.79386411339607, 2.857483146812938]}}, {"type": "Feature", "properties": {"norad_id": 41891, "name": "CYGFM03", "group": "weather", "lat": -12.961739529930485, "lon": -81.14553083631682, "alt_km": 417.9391753050695, "timestamp": "2025-12-04T03:47:54.197571+00:00", "meta": {"OBJECT_NAME": "CYGFM03", "OBJECT_ID": "2016-078H", "EPOCH": "2025-12-03T17:38:56.094144", "MEAN_MOTION": 15.49338017, "ECCENTRICITY": 0.0008344, "INCLINATION": 34.9426, "RA_OF_ASC_NODE": 82.3772, "ARG_OF_PERICENTER": 119.6239, "MEAN_ANOMALY": 240.5315, "EPHEMERIS_TYPE": 0, "CLASSIFICATION_TYPE": "U", "NORAD_CAT_ID": 41891, "ELEMENT_SET_NO": 999, "REV_AT_EPOCH": 49853, "BSTAR": 0.00054312, "MEAN_MOTION_DOT": 0.00030783, "MEAN_MOTION_DDOT": 0}, "tle": {"line1": "1 41891U 16078H   25337.73537146  .00030783  00000+0  54312-3 0  9999", "line2": "2 41891  34.9426  82.3772 0008344 119.6239 240.5315 15.49338017498532"}}, "geometry": {"type": "Point", "coordinates": [-81.14553083631682, -12.961739529930485]}}]}